[{"OBJECT_NAME":"STARLINK-6179","OBJECT_ID":"2023-083AL","EPOCH":"2026-01-05T12:07:03.226944","MEAN_MOTION":15.02552543,"ECCENTRICITY":0.00015025,"INCLINATION":43.0039,"RA_OF_ASC_NODE":52.2876,"ARG_OF_PERICENTER":288.355,"MEAN_ANOMALY":71.7129,"EPHEMERIS_TYPE":0,"CLASSIFICATION_TYPE":"U","NORAD_CAT_ID":56910,"ELEMENT_SET_NO":999,"REV_AT_EPOCH":14231,"BSTAR":-6.9550029e-5,"MEAN_MOTION_DOT":-1.143e-5,"MEAN_MOTION_DDOT":0},{"OBJECT_NAME":"STARLINK-6116","OBJECT_ID":"2023-083AM","EPOCH":"2026-01-05T12:24:38.279808","MEAN_MOTION":15.02532663,"ECCENTRICITY":0.00010386,"INCLINATION":43.0042,"RA_OF_ASC_NODE":52.3807,"ARG_OF_PERICENTER":272.6772,"MEAN_ANOMALY":87.3951,"EPHEMERIS_TYPE":0,"CLASSIFICATION_TYPE":"U","NORAD_CAT_ID":56911,"ELEMENT_SET_NO":999,"REV_AT_EPOCH":14231,"BSTAR":3.7090929e-5,"MEAN_MOTION_DOT":2.97e-6,"MEAN_MOTION_DDOT":0},{"OBJECT_NAME":"STARLINK-5805","OBJECT_ID":"2023-083AN","EPOCH":"2026-01-05T12:00:39.269664","MEAN_MOTION":15.02543803,"ECCENTRICITY":0.00014664,"INCLINATION":43.0049,"RA_OF_ASC_NODE":52.2509,"ARG_OF_PERICENTER":267.8442,"MEAN_ANOMALY":92.2232,"EPHEMERIS_TYPE":0,"CLASSIFICATION_TYPE":"U","NORAD_CAT_ID":56912,"ELEMENT_SET_NO":999,"REV_AT_EPOCH":14231,"BSTAR":-4.1889421e-5,"MEAN_MOTION_DOT":-7.7e-6,"MEAN_MOTION_DDOT":0},{"OBJECT_NAME":"STARLINK-5950","OBJECT_ID":"2023-083AP","EPOCH":"2026-01-05T12:19:50.285280","MEAN_MOTION":15.02537804,"ECCENTRICITY":0.00016424,"INCLINATION":43.0082,"RA_OF_ASC_NODE":52.3502,"ARG_OF_PERICENTER":259.8488,"MEAN_ANOMALY":100.2169,"EPHEMERIS_TYPE":0,"CLASSIFICATION_TYPE":"U","NORAD_CAT_ID":56913,"ELEMENT_SET_NO":999,"REV_AT_EPOCH":14231,"BSTAR":3.30562e-6,"MEAN_MOTION_DOT":-1.59e-6,"MEAN_MOTION_DDOT":0},{"OBJECT_NAME":"STARLINK-5961","OBJECT_ID":"2023-083AQ","EPOCH":"2026-01-05T11:51:03.992544","MEAN_MOTION":15.02535407,"ECCENTRICITY":0.00012102,"INCLINATION":43.0041,"RA_OF_ASC_NODE":52.2041,"ARG_OF_PERICENTER":266.6712,"MEAN_ANOMALY":93.3992,"EPHEMERIS_TYPE":0,"CLASSIFICATION_TYPE":"U","NORAD_CAT_ID":56914,"ELEMENT_SET_NO":999,"REV_AT_EPOCH":14231,"BSTAR":5.5173086e-5,"MEAN_MOTION_DOT":5.42e-6,"MEAN_MOTION_DDOT":0},{"OBJECT_NAME":"STARLINK-5965","OBJECT_ID":"2023-083AR","EPOCH":"2026-01-05T12:10:14.985696","MEAN_MOTION":15.02535819,"ECCENTRICITY":9.42e-5,"INCLINATION":43.0038,"RA_OF_ASC_NODE":52.3055,"ARG_OF_PERICENTER":266.2374,"MEAN_ANOMALY":93.8361,"EPHEMERIS_TYPE":0,"CLASSIFICATION_TYPE":"U","NORAD_CAT_ID":56915,"ELEMENT_SET_NO":999,"REV_AT_EPOCH":14231,"BSTAR":4.056854e-5,"MEAN_MOTION_DOT":3.45e-6,"MEAN_MOTION_DDOT":0},{"OBJECT_NAME":"STARLINK-5973","OBJECT_ID":"2023-083AS","EPOCH":"2026-01-05T11:27:05.942304","MEAN_MOTION":15.02534523,"ECCENTRICITY":9.855e-5,"INCLINATION":43.0033,"RA_OF_ASC_NODE":52.0794,"ARG_OF_PERICENTER":259.2776,"MEAN_ANOMALY":100.7956,"EPHEMERIS_TYPE":0,"CLASSIFICATION_TYPE":"U","NORAD_CAT_ID":56916,"ELEMENT_SET_NO":999,"REV_AT_EPOCH":14228,"BSTAR":1.8562806e-5,"MEAN_MOTION_DOT":4.7e-7,"MEAN_MOTION_DDOT":0},{"OBJECT_NAME":"STARLINK-5971","OBJECT_ID":"2023-083AT","EPOCH":"2026-01-05T11:55:51.798720","MEAN_MOTION":15.02534919,"ECCENTRICITY":9.327e-5,"INCLINATION":43.0039,"RA_OF_ASC_NODE":52.2224,"ARG_OF_PERICENTER":255.742,"MEAN_ANOMALY":104.3319,"EPHEMERIS_TYPE":0,"CLASSIFICATION_TYPE":"U","NORAD_CAT_ID":56917,"ELEMENT_SET_NO":999,"REV_AT_EPOCH":14231,"BSTAR":9.8091347e-5,"MEAN_MOTION_DOT":1.122e-5,"MEAN_MOTION_DDOT":0},{"OBJECT_NAME":"STARLINK-5951","OBJECT_ID":"2023-083AU","EPOCH":"2026-01-05T03:42:50.820768","MEAN_MOTION":15.02530892,"ECCENTRICITY":0.00011521,"INCLINATION":43.0045,"RA_OF_ASC_NODE":53.954,"ARG_OF_PERICENTER":269.4526,"MEAN_ANOMALY":90.6184,"EPHEMERIS_TYPE":0,"CLASSIFICATION_TYPE":"U","NORAD_CAT_ID":56918,"ELEMENT_SET_NO":999,"REV_AT_EPOCH":14226,"BSTAR":2.643287e-6,"MEAN_MOTION_DOT":-1.68e-6,"MEAN_MOTION_DDOT":0},{"OBJECT_NAME":"STARLINK-5966","OBJECT_ID":"2023-083AV","EPOCH":"2026-01-05T11:47:52.521504","MEAN_MOTION":15.02535986,"ECCENTRICITY":8.736e-5,"INCLINATION":43.0036,"RA_OF_ASC_NODE":52.1826,"ARG_OF_PERICENTER":254.8662,"MEAN_ANOMALY":105.2083,"EPHEMERIS_TYPE":0,"CLASSIFICATION_TYPE":"U","NORAD_CAT_ID":56919,"ELEMENT_SET_NO":999,"REV_AT_EPOCH":14231,"BSTAR":3.7099423e-5,"MEAN_MOTION_DOT":2.98e-6,"MEAN_MOTION_DDOT":0},{"OBJECT_NAME":"STARLINK-5960","OBJECT_ID":"2023-083AW","EPOCH":"2026-01-05T11:31:52.983840","MEAN_MOTION":15.02569939,"ECCENTRICITY":8.322e-5,"INCLINATION":43.0038,"RA_OF_ASC_NODE":52.1007,"ARG_OF_PERICENTER":244.8286,"MEAN_ANOMALY":115.247,"EPHEMERIS_TYPE":0,"CLASSIFICATION_TYPE":"U","NORAD_CAT_ID":56920,"ELEMENT_SET_NO":999,"REV_AT_EPOCH":14231,"BSTAR":-0.00049990476,"MEAN_MOTION_DOT":-6.956e-5,"MEAN_MOTION_DDOT":0},{"OBJECT_NAME":"STARLINK-5958","OBJECT_ID":"2023-083AX","EPOCH":"2026-01-05T11:46:16.328928","MEAN_MOTION":15.0253562,"ECCENTRICITY":0.00012782,"INCLINATION":43.0003,"RA_OF_ASC_NODE":52.1703,"ARG_OF_PERICENTER":264.7021,"MEAN_ANOMALY":95.3675,"EPHEMERIS_TYPE":0,"CLASSIFICATION_TYPE":"U","NORAD_CAT_ID":56921,"ELEMENT_SET_NO":999,"REV_AT_EPOCH":14231,"BSTAR":6.0775972e-5,"MEAN_MOTION_DOT":6.17e-6,"MEAN_MOTION_DDOT":0},{"OBJECT_NAME":"STARLINK-5937","OBJECT_ID":"2023-083AY","EPOCH":"2026-01-05T09:36:58.820256","MEAN_MOTION":15.02535247,"ECCENTRICITY":8.412e-5,"INCLINATION":43.0024,"RA_OF_ASC_NODE":52.3608,"ARG_OF_PERICENTER":247.7432,"MEAN_ANOMALY":112.3321,"EPHEMERIS_TYPE":0,"CLASSIFICATION_TYPE":"U","NORAD_CAT_ID":56922,"ELEMENT_SET_NO":999,"REV_AT_EPOCH":14230,"BSTAR":4.2364022e-5,"MEAN_MOTION_DOT":3.69e-6,"MEAN_MOTION_DDOT":0},{"OBJECT_NAME":"STARLINK-5952","OBJECT_ID":"2023-083AZ","EPOCH":"2026-01-05T11:36:41.106240","MEAN_MOTION":15.0252999,"ECCENTRICITY":0.00011705,"INCLINATION":43.0003,"RA_OF_ASC_NODE":52.1184,"ARG_OF_PERICENTER":268.4872,"MEAN_ANOMALY":91.5836,"EPHEMERIS_TYPE":0,"CLASSIFICATION_TYPE":"U","NORAD_CAT_ID":56923,"ELEMENT_SET_NO":999,"REV_AT_EPOCH":14231,"BSTAR":0.00012855372,"MEAN_MOTION_DOT":1.533e-5,"MEAN_MOTION_DDOT":0},{"OBJECT_NAME":"STARLINK-5731","OBJECT_ID":"2023-083BA","EPOCH":"2026-01-05T04:51:23.963616","MEAN_MOTION":15.02523419,"ECCENTRICITY":0.0001371,"INCLINATION":43.0051,"RA_OF_ASC_NODE":53.4541,"ARG_OF_PERICENTER":267.2615,"MEAN_ANOMALY":92.807,"EPHEMERIS_TYPE":0,"CLASSIFICATION_TYPE":"U","NORAD_CAT_ID":56924,"ELEMENT_SET_NO":999,"REV_AT_EPOCH":14238,"BSTAR":0.00015447823,"MEAN_MOTION_DOT":1.883e-5,"MEAN_MOTION_DDOT":0},{"OBJECT_NAME":"STARLINK-5733","OBJECT_ID":"2023-083BB","EPOCH":"2026-01-05T09:41:46.404384","MEAN_MOTION":15.02531735,"ECCENTRICITY":0.00011358,"INCLINATION":43.0059,"RA_OF_ASC_NODE":52.3844,"ARG_OF_PERICENTER":263.3257,"MEAN_ANOMALY":96.7456,"EPHEMERIS_TYPE":0,"CLASSIFICATION_TYPE":"U","NORAD_CAT_ID":56925,"ELEMENT_SET_NO":999,"REV_AT_EPOCH":14230,"BSTAR":9.4565243e-5,"MEAN_MOTION_DOT":1.074e-5,"MEAN_MOTION_DDOT":0}]
