STARLINK-6179           
1 56910U 23083AL  26005.50489846 -.00001143  00000+0 -69550-4 0  9993
2 56910  43.0039  52.2876 0001502 288.3550  71.7129 15.02552543142311
STARLINK-6116           
1 56911U 23083AM  26005.51710972  .00000297  00000+0  37091-4 0  9994
2 56911  43.0042  52.3807 0001038 272.6772  87.3951 15.02532663142314
STARLINK-5805           
1 56912U 23083AN  26005.50045451 -.00000770  00000+0 -41889-4 0  9995
2 56912  43.0049  52.2509 0001466 267.8442  92.2232 15.02543803142310
STARLINK-5950           
1 56913U 23083AP  26005.51377645 -.00000159  00000+0  33056-5 0  9998
2 56913  43.0082  52.3502 0001642 259.8488 100.2169 15.02537804142312
STARLINK-5961           
1 56914U 23083AQ  26005.49379621  .00000542  00000+0  55173-4 0  9990
2 56914  43.0041  52.2041 0001210 266.6712  93.3992 15.02535407142315
STARLINK-5965           
1 56915U 23083AR  26005.50711789  .00000345  00000+0  40569-4 0  9992
2 56915  43.0038  52.3055 0000942 266.2374  93.8361 15.02535819142311
STARLINK-5973           
1 56916U 23083AS  26005.47715211  .00000047  00000+0  18563-4 0  9991
2 56916  43.0033  52.0794 0000985 259.2776 100.7956 15.02534523142284
STARLINK-5971           
1 56917U 23083AT  26005.49712730  .00001122  00000+0  98091-4 0  9996
2 56917  43.0039  52.2224 0000932 255.7420 104.3319 15.02534919142316
STARLINK-5951           
1 56918U 23083AU  26005.15475487 -.00000168  00000+0  26433-5 0  9997
2 56918  43.0045  53.9540 0001152 269.4526  90.6184 15.02530892142264
STARLINK-5966           
1 56919U 23083AV  26005.49158011  .00000298  00000+0  37099-4 0  9998
2 56919  43.0036  52.1826 0000873 254.8662 105.2083 15.02535986142317
STARLINK-5960           
1 56920U 23083AW  26005.48047435 -.00006956  00000+0 -49990-3 0  9997
2 56920  43.0038  52.1007 0000832 244.8286 115.2470 15.02569939142314
STARLINK-5958           
1 56921U 23083AX  26005.49046677  .00000617  00000+0  60776-4 0  9998
2 56921  43.0003  52.1703 0001278 264.7021  95.3675 15.02535620142318
STARLINK-5937           
1 56922U 23083AY  26005.40068079  .00000369  00000+0  42364-4 0  9997
2 56922  43.0024  52.3608 0000841 247.7432 112.3321 15.02535247142302
STARLINK-5952           
1 56923U 23083AZ  26005.48380910  .00001533  00000+0  12855-3 0  9992
2 56923  43.0003  52.1184 0001170 268.4872  91.5836 15.02529990142319
STARLINK-5731           
1 56924U 23083BA  26005.20236069  .00001883  00000+0  15448-3 0  9997
2 56924  43.0051  53.4541 0001371 267.2615  92.8070 15.02523419142380
STARLINK-5733           
1 56925U 23083BB  26005.40400931  .00001074  00000+0  94565-4 0  9991
2 56925  43.0059  52.3844 0001135 263.3257  96.7456 15.02531735142303
